{
    "links": {
        "self": "http://www.neowsapp.com/rest/v1/neo/3596962?api_key=iIulBulltgU6a56xZRHN4H3l9WmuAYTsLGpBGhQ2"
    },
    "id": "3596962",
    "neo_reference_id": "3596962",
    "name": "(2012 BA102)",
    "designation": "2012 BA102",
    "nasa_jpl_url": "http://ssd.jpl.nasa.gov/sbdb.cgi?sstr=3596962",
    "absolute_magnitude_h": 26.6,
    "estimated_diameter": {
        "kilometers": {
            "estimated_diameter_min": 0.0127219879,
            "estimated_diameter_max": 0.0284472297
        },
        "meters": {
            "estimated_diameter_min": 12.7219878539,
            "estimated_diameter_max": 28.4472296503
        },
        "miles": {
            "estimated_diameter_min": 0.0079050743,
            "estimated_diameter_max": 0.0176762835
        },
        "feet": {
            "estimated_diameter_min": 41.7388066307,
            "estimated_diameter_max": 93.330808926
        }
    },
    "is_potentially_hazardous_asteroid": false,
    "close_approach_data": [
        {
            "close_approach_date": "1958-10-15",
            "close_approach_date_full": "1958-Oct-15 22:42",
            "epoch_date_close_approach": -353812680000,
            "relative_velocity": {
                "kilometers_per_second": "16.8208255674",
                "kilometers_per_hour": "60554.9720425572",
                "miles_per_hour": "37626.5047116656"
            },
            "miss_distance": {
                "astronomical": "0.3163806827",
                "lunar": "123.0720855703",
                "kilometers": "47329876.241065849",
                "miles": "29409421.3632087562"
            },
            "orbiting_body": "Earth"
        },
        {
            "close_approach_date": "2012-01-26",
            "close_approach_date_full": "2012-Jan-26 07:33",
            "epoch_date_close_approach": 1327563180000,
            "relative_velocity": {
                "kilometers_per_second": "7.5833536395",
                "kilometers_per_hour": "27300.0731022063",
                "miles_per_hour": "16963.2037562014"
            },
            "miss_distance": {
                "astronomical": "0.0067564156",
                "lunar": "2.6282456684",
                "kilometers": "1010745.382594772",
                "miles": "628048.0577689736"
            },
            "orbiting_body": "Moon"
        },
        {
            "close_approach_date": "2012-01-26",
            "close_approach_date_full": "2012-Jan-26 17:13",
            "epoch_date_close_approach": 1327597980000,
            "relative_velocity": {
                "kilometers_per_second": "7.5113436648",
                "kilometers_per_hour": "27040.8371933018",
                "miles_per_hour": "16802.1246438047"
            },
            "miss_distance": {
                "astronomical": "0.0067594412",
                "lunar": "2.6294226268",
                "kilometers": "1011198.005910244",
                "miles": "628329.3048556072"
            },
            "orbiting_body": "Earth"
        },
        {
            "close_approach_date": "2013-10-21",
            "close_approach_date_full": "2013-Oct-21 16:47",
            "epoch_date_close_approach": 1382374020000,
            "relative_velocity": {
                "kilometers_per_second": "14.7459238574",
                "kilometers_per_hour": "53085.3258864971",
                "miles_per_hour": "32985.1570765293"
            },
            "miss_distance": {
                "astronomical": "0.2469884758",
                "lunar": "96.0785170862",
                "kilometers": "36948949.894226546",
                "miles": "22959012.8407004948"
            },
            "orbiting_body": "Earth"
        }
    ],
    "orbital_data": {
        "orbit_id": "6",
        "orbit_determination_date": "2017-04-06 08:51:07",
        "first_observation_date": "2012-01-30",
        "last_observation_date": "2012-02-21",
        "data_arc_in_days": 22,
        "observations_used": 18,
        "orbit_uncertainty": "8",
        "minimum_orbit_intersection": ".00181146",
        "jupiter_tisserand_invariant": "4.363",
        "epoch_osculation": "2455959.5",
        "eccentricity": ".3959271366459975",
        "semi_major_axis": "1.547438190469372",
        "inclination": "2.367288144988172",
        "ascending_node_longitude": "306.8814879000035",
        "orbital_period": "703.1020971369313",
        "perihelion_distance": ".9347654185801697",
        "perihelion_argument": "142.7020555411444",
        "aphelion_distance": "2.160110962358574",
        "perihelion_time": "2455924.133605948116",
        "mean_anomaly": "18.10818359171906",
        "mean_motion": ".5120166778991826",
        "equinox": "J2000",
        "orbit_class": {
            "orbit_class_type": "APO",
            "orbit_class_description": "Near-Earth asteroid orbits which cross the Earth’s orbit similar to that of 1862 Apollo",
            "orbit_class_range": "a (semi-major axis) > 1.0 AU; q (perihelion) < 1.017 AU"
        }
    },
    "is_sentry_object": false
}